BRAC ONNESHA            
1 42823U 98067MX  18076.47100580  .00029541  00000-0  31480-3 0  9996
2 42823  51.6363 106.5069 0004061 198.3216 161.7633 15.63709905 39467
NIGERIAEDUSAT-1         
1 42824U 98067MY  18076.35760706  .00029931  00000-0  32066-3 0  9990
2 42824  51.6366 107.2599 0003978 198.3723 161.7128 15.63567268 39469
CORVUS BC2              
1 42846U 17042X   18076.44813593  .00000091  00000-0  14338-4 0  9990
2 42846  97.6047 342.5964 0010653 135.2813 224.9266 14.91774407 36699
CORVUS BC1              
1 42847U 17042Y   18076.43188757  .00000253  00000-0  30339-4 0  9996
2 42847  97.6046 342.6166 0010279 135.0289 225.1764 14.91873548 36684
SILU-1 (SILKROAD 1)     
1 42903U 17021F   18076.45718911  .00023975  00000-0  21662-3 0  9993
2 42903  42.7770 162.2020 0011785   7.7378  55.1042 15.67535339 35512
MIRATA                  
1 43015U 17073C   18076.35489642  .00001120  00000-0  94571-4 0  9998
2 43015  97.6994  11.2793 0258156 210.2082 148.4032 14.77879743 17573
ASTERIA                 
1 43020U 98067NH  18076.56463495  .00014926  00000-0  20807-3 0  9995
2 43020  51.6391 113.9123 0001944 171.5020 188.6005 15.57142282 18206
DELLINGR (RBLE)         
1 43021U 98067NJ  18076.53580827  .00009273  00000-0  13650-3 0  9999
2 43021  51.6388 114.4647 0001900 169.5904 190.5127 15.56205055 18192
TECHEDSAT 6             
1 43026U 98067NK  18076.59237637  .00152141  00000-0  12298-2 0  9997
2 43026  51.6336 108.8154 0003458  24.2964 335.8196 15.69822948 18171
OSIRIS-3U               
1 43027U 98067NL  18076.46955143  .00035738  00000-0  44539-3 0  9999
2 43027  51.6376 113.2716 0002259 139.5935 220.5226 15.59551549 18085
AEROCUBE 7B             
1 43042U 17071F   18076.53630093  .00005138  00000-0  14464-3 0  9999
2 43042  51.6385 127.8147 0004996 298.2252  61.8227 15.38198066 15493
AEROCUBE 7C             
1 43043U 17071G   18076.53563583  .00005049  00000-0  14227-3 0  9997
2 43043  51.6387 127.8121 0004970 298.3241  61.7241 15.38208627 15466
CHEFSAT                 
1 43044U 17071H   18076.39063667  .00008081  00000-0  21810-3 0  9995
2 43044  51.6391 128.3488 0005045 294.8187  65.2272 15.38677271 15444
ASGARDIA 1              
1 43049U 17071N   18076.39486755  .00004547  00000-0  12852-3 0  9996
2 43049  51.6389 128.3748 0002470 321.9230  38.1579 15.38363446 15440
ISARA                   
1 43050U 17071P   18076.51675016  .00006234  00000-0  17085-3 0  9990
2 43050  51.6389 127.6933 0002537 319.6553  40.4242 15.38637783 15458
FAUNA                   
1 43052U 17071R   18076.39022856  .00004625  00000-0  13016-3 0  9998
2 43052  51.6391 128.3479 0002360 318.1957  41.8847 15.38457102 15431
CORVUS BC3              
1 43118U 18004H   18076.37178479  .00001188  00000-0  54979-4 0  9994
2 43118  97.5444 138.7355 0012099  60.9974 299.2473 15.22071186  9749
MICROMAS-2A             
1 43131U 18004W   18076.35954066  .00003053  00000-0  13500-3 0  9998
2 43131  97.5448 138.7554 0011336  64.8526 295.3885 15.22427121  9746
GOMX4-B                 
1 43196U 18015E   18076.58590345  .00008206  00000-0  34513-3 0  9994
2 43196  97.3306 207.5016 0020651 117.8549 242.4682 15.23453692  6580
GOMX4-A                 
1 43197U 18015F   18076.62250000  .00001249  00000-0  54916-4 0  9991
2 43197  97.3304 207.5316 0020979 118.3496  66.4107 15.23541784  6599
